STARLINK-36405          
1 67921U 26036T   26067.94152904  .00033355  00000+0  16069-3 0  9990
2 67921  42.9987 254.2109 0002167 254.4983 105.5650 15.81965994  3552
STARLINK-36383          
1 67922U 26036U   26067.94076386  .00258074  00000+0  11896-2 0  9999
2 67922  42.9989 254.2043 0002131 261.9528  98.1102 15.82057969  3555
STARLINK-36406          
1 67923U 26036V   26067.24565554  .00537520  00000+0  24299-2 0  9990
2 67923  42.9977 258.4533 0002063 334.7425  25.3346 15.81750506  3448
STARLINK-36714          
1 67924U 26036W   26067.93926917  .00401218  00000+0  18092-2 0  9999
2 67924  42.9988 254.1923 0001816 272.3118  87.7546 15.82155670  3556
STARLINK-36726          
1 67925U 26036X   26067.93853814 -.00192425  00000+0 -93903-3 0  9999
2 67925  42.9988 254.1867 0003330 245.4626 114.5898 15.81838832  3558
STARLINK-36758          
1 67926U 26036Y   26067.93777203  .00377732  00000+0  17092-2 0  9995
2 67926  42.9987 254.1799 0002136 247.1528 112.9119 15.82141573  3553
STARLINK-36728          
1 67927U 26036Z   26067.93626268  .00351070  00000+0  15977-2 0  9997
2 67927  42.9987 254.1675 0002835 246.5094 113.5480 15.82087112  3550
STARLINK-36771          
1 67928U 26036AA  26067.93702077  .00399910  00000+0  18035-2 0  9994
2 67928  42.9988 254.1733 0002040 278.3121  81.7520 15.82156996  3557
STARLINK-36809          
1 67929U 26036AB  26067.93552198  .00357524  00000+0  16218-2 0  9998
2 67929  42.9989 254.1610 0002078 269.2504  90.8130 15.82141317  3557
STARLINK-36865          
1 67930U 26036AC  26067.93402334  .00357213  00000+0  16205-2 0  9997
2 67930  42.9987 254.1483 0002026 262.9102  97.1540 15.82140655  3551
STARLINK-36781          
1 67931U 26036AD  26067.93476536  .00349429  00000+0  15905-2 0  9999
2 67931  42.9989 254.1549 0002762 247.3940 112.6640 15.82088129  3552
STARLINK-36301          
1 67932U 26037A   26067.91668981  .00032799  00000+0  15775-3 0  9991
2 67932  42.9990 203.3166 0001135 271.5983 272.1475 15.82009649  2989
STARLINK-36852          
1 67933U 26037B   26067.91668981  .00052802  00000+0  25190-3 0  9991
2 67933  42.9991 203.3057 0001462 262.5491 285.4630 15.82004330  3070
STARLINK-36861          
1 67934U 26037C   26067.91668981  .00051199  00000+0  24447-3 0  9994
2 67934  42.9990 203.2950 0001280 285.1529 267.1434 15.81996340  3071
STARLINK-36860          
1 67935U 26037D   26067.91668981  .00117832  00000+0  55590-3 0  9995
2 67935  42.9988 203.2844 0001626 269.1104 287.4667 15.81963194  3070
STARLINK-36848          
1 67936U 26037E   26067.91668981  .00151522  00000+0  71207-3 0  9993
2 67936  42.9989 203.2621 0001811 290.5103 274.6178 15.81941003  3078
