[{"OBJECT_NAME":"STARLINK-36405","OBJECT_ID":"2026-036T","EPOCH":"2026-03-08T22:35:48.109056","MEAN_MOTION":15.81965994,"ECCENTRICITY":0.00021674,"INCLINATION":42.9987,"RA_OF_ASC_NODE":254.2109,"ARG_OF_PERICENTER":254.4983,"MEAN_ANOMALY":105.565,"EPHEMERIS_TYPE":0,"CLASSIFICATION_TYPE":"U","NORAD_CAT_ID":67921,"ELEMENT_SET_NO":999,"REV_AT_EPOCH":355,"BSTAR":0.00016068886,"MEAN_MOTION_DOT":0.00033355,"MEAN_MOTION_DDOT":0},{"OBJECT_NAME":"STARLINK-36383","OBJECT_ID":"2026-036U","EPOCH":"2026-03-08T22:34:41.997504","MEAN_MOTION":15.82057969,"ECCENTRICITY":0.00021311,"INCLINATION":42.9989,"RA_OF_ASC_NODE":254.2043,"ARG_OF_PERICENTER":261.9528,"MEAN_ANOMALY":98.1102,"EPHEMERIS_TYPE":0,"CLASSIFICATION_TYPE":"U","NORAD_CAT_ID":67922,"ELEMENT_SET_NO":999,"REV_AT_EPOCH":355,"BSTAR":0.0011895964,"MEAN_MOTION_DOT":0.00258074,"MEAN_MOTION_DDOT":0},{"OBJECT_NAME":"STARLINK-36406","OBJECT_ID":"2026-036V","EPOCH":"2026-03-08T05:53:44.638656","MEAN_MOTION":15.81750506,"ECCENTRICITY":0.00020635,"INCLINATION":42.9977,"RA_OF_ASC_NODE":258.4533,"ARG_OF_PERICENTER":334.7425,"MEAN_ANOMALY":25.3346,"EPHEMERIS_TYPE":0,"CLASSIFICATION_TYPE":"U","NORAD_CAT_ID":67923,"ELEMENT_SET_NO":999,"REV_AT_EPOCH":344,"BSTAR":0.0024299131,"MEAN_MOTION_DOT":0.0053752,"MEAN_MOTION_DDOT":0},{"OBJECT_NAME":"STARLINK-36714","OBJECT_ID":"2026-036W","EPOCH":"2026-03-08T22:32:32.856288","MEAN_MOTION":15.8215567,"ECCENTRICITY":0.00018168,"INCLINATION":42.9988,"RA_OF_ASC_NODE":254.1923,"ARG_OF_PERICENTER":272.3118,"MEAN_ANOMALY":87.7546,"EPHEMERIS_TYPE":0,"CLASSIFICATION_TYPE":"U","NORAD_CAT_ID":67924,"ELEMENT_SET_NO":999,"REV_AT_EPOCH":355,"BSTAR":0.0018091725,"MEAN_MOTION_DOT":0.00401218,"MEAN_MOTION_DDOT":0},{"OBJECT_NAME":"STARLINK-36726","OBJECT_ID":"2026-036X","EPOCH":"2026-03-08T22:31:29.695296","MEAN_MOTION":15.81838832,"ECCENTRICITY":0.000333,"INCLINATION":42.9988,"RA_OF_ASC_NODE":254.1867,"ARG_OF_PERICENTER":245.4626,"MEAN_ANOMALY":114.5898,"EPHEMERIS_TYPE":0,"CLASSIFICATION_TYPE":"U","NORAD_CAT_ID":67925,"ELEMENT_SET_NO":999,"REV_AT_EPOCH":355,"BSTAR":-0.00093902522,"MEAN_MOTION_DOT":-0.00192425,"MEAN_MOTION_DDOT":0},{"OBJECT_NAME":"STARLINK-36758","OBJECT_ID":"2026-036Y","EPOCH":"2026-03-08T22:30:23.503392","MEAN_MOTION":15.82141573,"ECCENTRICITY":0.00021369,"INCLINATION":42.9987,"RA_OF_ASC_NODE":254.1799,"ARG_OF_PERICENTER":247.1528,"MEAN_ANOMALY":112.9119,"EPHEMERIS_TYPE":0,"CLASSIFICATION_TYPE":"U","NORAD_CAT_ID":67926,"ELEMENT_SET_NO":999,"REV_AT_EPOCH":355,"BSTAR":0.0017092243,"MEAN_MOTION_DOT":0.00377732,"MEAN_MOTION_DDOT":0},{"OBJECT_NAME":"STARLINK-36728","OBJECT_ID":"2026-036Z","EPOCH":"2026-03-08T22:28:13.095552","MEAN_MOTION":15.82087112,"ECCENTRICITY":0.00028354,"INCLINATION":42.9987,"RA_OF_ASC_NODE":254.1675,"ARG_OF_PERICENTER":246.5094,"MEAN_ANOMALY":113.548,"EPHEMERIS_TYPE":0,"CLASSIFICATION_TYPE":"U","NORAD_CAT_ID":67927,"ELEMENT_SET_NO":999,"REV_AT_EPOCH":355,"BSTAR":0.0015977019,"MEAN_MOTION_DOT":0.0035107,"MEAN_MOTION_DDOT":0},{"OBJECT_NAME":"STARLINK-36771","OBJECT_ID":"2026-036AA","EPOCH":"2026-03-08T22:29:18.594528","MEAN_MOTION":15.82156996,"ECCENTRICITY":0.00020402,"INCLINATION":42.9988,"RA_OF_ASC_NODE":254.1733,"ARG_OF_PERICENTER":278.3121,"MEAN_ANOMALY":81.752,"EPHEMERIS_TYPE":0,"CLASSIFICATION_TYPE":"U","NORAD_CAT_ID":67928,"ELEMENT_SET_NO":999,"REV_AT_EPOCH":355,"BSTAR":0.0018034538,"MEAN_MOTION_DOT":0.0039991,"MEAN_MOTION_DDOT":0},{"OBJECT_NAME":"STARLINK-36809","OBJECT_ID":"2026-036AB","EPOCH":"2026-03-08T22:27:09.099072","MEAN_MOTION":15.82141317,"ECCENTRICITY":0.00020785,"INCLINATION":42.9989,"RA_OF_ASC_NODE":254.161,"ARG_OF_PERICENTER":269.2504,"MEAN_ANOMALY":90.813,"EPHEMERIS_TYPE":0,"CLASSIFICATION_TYPE":"U","NORAD_CAT_ID":67929,"ELEMENT_SET_NO":999,"REV_AT_EPOCH":355,"BSTAR":0.001621759,"MEAN_MOTION_DOT":0.00357524,"MEAN_MOTION_DDOT":0},{"OBJECT_NAME":"STARLINK-36865","OBJECT_ID":"2026-036AC","EPOCH":"2026-03-08T22:24:59.616576","MEAN_MOTION":15.82140655,"ECCENTRICITY":0.00020269,"INCLINATION":42.9987,"RA_OF_ASC_NODE":254.1483,"ARG_OF_PERICENTER":262.9102,"MEAN_ANOMALY":97.154,"EPHEMERIS_TYPE":0,"CLASSIFICATION_TYPE":"U","NORAD_CAT_ID":67930,"ELEMENT_SET_NO":999,"REV_AT_EPOCH":355,"BSTAR":0.0016204585,"MEAN_MOTION_DOT":0.00357213,"MEAN_MOTION_DDOT":0},{"OBJECT_NAME":"STARLINK-36781","OBJECT_ID":"2026-036AD","EPOCH":"2026-03-08T22:26:03.727104","MEAN_MOTION":15.82088129,"ECCENTRICITY":0.00027623,"INCLINATION":42.9989,"RA_OF_ASC_NODE":254.1549,"ARG_OF_PERICENTER":247.394,"MEAN_ANOMALY":112.664,"EPHEMERIS_TYPE":0,"CLASSIFICATION_TYPE":"U","NORAD_CAT_ID":67931,"ELEMENT_SET_NO":999,"REV_AT_EPOCH":355,"BSTAR":0.0015904831,"MEAN_MOTION_DOT":0.00349429,"MEAN_MOTION_DDOT":0},{"OBJECT_NAME":"STARLINK-36301","OBJECT_ID":"2026-037A","EPOCH":"2026-03-08T22:00:01.999584","MEAN_MOTION":15.82009649,"ECCENTRICITY":0.00011354,"INCLINATION":42.999,"RA_OF_ASC_NODE":203.3166,"ARG_OF_PERICENTER":271.5983,"MEAN_ANOMALY":272.1475,"EPHEMERIS_TYPE":0,"CLASSIFICATION_TYPE":"U","NORAD_CAT_ID":67932,"ELEMENT_SET_NO":999,"REV_AT_EPOCH":298,"BSTAR":0.00015775259,"MEAN_MOTION_DOT":0.00032799,"MEAN_MOTION_DDOT":0},{"OBJECT_NAME":"STARLINK-36852","OBJECT_ID":"2026-037B","EPOCH":"2026-03-08T22:00:01.999584","MEAN_MOTION":15.8200433,"ECCENTRICITY":0.00014625,"INCLINATION":42.9991,"RA_OF_ASC_NODE":203.3057,"ARG_OF_PERICENTER":262.5491,"MEAN_ANOMALY":285.463,"EPHEMERIS_TYPE":0,"CLASSIFICATION_TYPE":"U","NORAD_CAT_ID":67933,"ELEMENT_SET_NO":999,"REV_AT_EPOCH":307,"BSTAR":0.00025189832,"MEAN_MOTION_DOT":0.00052802,"MEAN_MOTION_DDOT":0},{"OBJECT_NAME":"STARLINK-36861","OBJECT_ID":"2026-037C","EPOCH":"2026-03-08T22:00:01.999584","MEAN_MOTION":15.8199634,"ECCENTRICITY":0.000128,"INCLINATION":42.999,"RA_OF_ASC_NODE":203.295,"ARG_OF_PERICENTER":285.1529,"MEAN_ANOMALY":267.1434,"EPHEMERIS_TYPE":0,"CLASSIFICATION_TYPE":"U","NORAD_CAT_ID":67934,"ELEMENT_SET_NO":999,"REV_AT_EPOCH":307,"BSTAR":0.0002444658,"MEAN_MOTION_DOT":0.00051199,"MEAN_MOTION_DDOT":0},{"OBJECT_NAME":"STARLINK-36860","OBJECT_ID":"2026-037D","EPOCH":"2026-03-08T22:00:01.999584","MEAN_MOTION":15.81963194,"ECCENTRICITY":0.00016268,"INCLINATION":42.9988,"RA_OF_ASC_NODE":203.2844,"ARG_OF_PERICENTER":269.1104,"MEAN_ANOMALY":287.4667,"EPHEMERIS_TYPE":0,"CLASSIFICATION_TYPE":"U","NORAD_CAT_ID":67935,"ELEMENT_SET_NO":999,"REV_AT_EPOCH":307,"BSTAR":0.00055589704,"MEAN_MOTION_DOT":0.00117832,"MEAN_MOTION_DDOT":0},{"OBJECT_NAME":"STARLINK-36848","OBJECT_ID":"2026-037E","EPOCH":"2026-03-08T22:00:01.999584","MEAN_MOTION":15.81941003,"ECCENTRICITY":0.00018114,"INCLINATION":42.9989,"RA_OF_ASC_NODE":203.2621,"ARG_OF_PERICENTER":290.5103,"MEAN_ANOMALY":274.6178,"EPHEMERIS_TYPE":0,"CLASSIFICATION_TYPE":"U","NORAD_CAT_ID":67936,"ELEMENT_SET_NO":999,"REV_AT_EPOCH":307,"BSTAR":0.00071206605,"MEAN_MOTION_DOT":0.00151522,"MEAN_MOTION_DDOT":0}]
